IRIDIUM 26              
1 24903U 97043A   25069.31295007  .00000721  00000+0  23661-3 0  9990
2 24903  86.4013 152.1460 0002387  92.6406 267.5065 14.37016943442546
IRIDIUM 22              
1 24907U 97043E   25069.30093510  .00000658  00000+0  22066-3 0  9995
2 24907  86.4022 155.6000 0002159  95.3652 264.7791 14.35845277442585
DUMMY MASS 1            
1 24925U 97048A   25069.35596634  .00000956  00000+0  10402-3 0  9992
2 24925  86.3414 180.9868 0008471 125.7422 234.4592 14.86846090490449
DUMMY MASS 2            
1 24926U 97048B   25069.36899228  .00000955  00000+0  10448-3 0  9998
2 24926  86.3415 182.5679 0008944 135.9502 224.2437 14.86598946490221
IRIDIUM 29              
1 24944U 97051A   25069.35835410  .00000816  00000+0  27267-3 0  9997
2 24944  86.4030 185.3063 0001942  99.4770 260.6647 14.36328625439089
IRIDIUM 33              
1 24946U 97051C   25069.37237802  .00000616  00000+0  21020-3 0  9991
2 24946  86.3946 184.5533 0009218  51.7208 308.4816 14.34797868438579
IRIDIUM 28              
1 24948U 97051E   25069.39571085  .00000814  00000+0  26670-3 0  9995
2 24948  86.4037 182.8659 0002437  87.8626 272.2850 14.37260995439658
IRIDIUM 36              
1 24967U 97056C   25069.44347281  .00000986  00000+0  32331-3 0  9997
2 24967  86.3991 214.4275 0001995  87.4447 272.6979 14.37461554438039
